[
    {
        "CCSDS_OMM_VERS": "3.0",
        "COMMENT": "GENERATED VIA SPACE-TRACK.ORG API",
        "CREATION_DATE": "2025-03-02T09:28:08",
        "ORIGINATOR": "18 SPCS",
        "OBJECT_NAME": "GALILEO 6 (262)",
        "OBJECT_ID": "2014-050B",
        "CENTER_NAME": "EARTH",
        "REF_FRAME": "TEME",
        "TIME_SYSTEM": "UTC",
        "MEAN_ELEMENT_THEORY": "SGP4",
        "EPOCH": "2025-03-01T10:38:19.158720",
        "MEAN_MOTION": "1.85520347",
        "ECCENTRICITY": "0.16208900",
        "INCLINATION": "49.4029",
        "RA_OF_ASC_NODE": "291.7688",
        "ARG_OF_PERICENTER": "161.9134",
        "MEAN_ANOMALY": "204.6187",
        "EPHEMERIS_TYPE": "0",
        "CLASSIFICATION_TYPE": "U",
        "NORAD_CAT_ID": "40129",
        "ELEMENT_SET_NO": "999",
        "REV_AT_EPOCH": "7171",
        "BSTAR": "0.00000000000000",
        "MEAN_MOTION_DOT": "-0.00000017",
        "MEAN_MOTION_DDOT": "0.0000000000000",
        "SEMIMAJOR_AXIS": "27977.408",
        "PERIOD": "776.195",
        "APOAPSIS": "26134.103",
        "PERIAPSIS": "17064.443",
        "OBJECT_TYPE": "PAYLOAD",
        "RCS_SIZE": "LARGE",
        "COUNTRY_CODE": "ESA",
        "LAUNCH_DATE": "2014-08-22",
        "SITE": "FRGUI",
        "DECAY_DATE": null,
        "FILE": "4656805",
        "GP_ID": "282046502",
        "TLE_LINE0": "0 GALILEO 6 (262)",
        "TLE_LINE1": "1 40129U 14050B   25060.44327730 -.00000017  00000-0  00000-0 0  9998",
        "TLE_LINE2": "2 40129  49.4029 291.7688 1620890 161.9134 204.6187  1.85520347 71717"
    }
]